{
  "type": "FeatureCollection",
  "name": "india_landcover_zones",
  "crs": { "type": "name", "properties": { "name": "urn:ogc:def:crs:OGC:1.3:CRS84" } },
  "features": [
    {
      "type": "Feature",
      "properties": {
        "name": "Simlipal Tiger Reserve & Biosphere Canopy",
        "zone_type": "forest",
        "state": "Odisha",
        "vulnerability_weight": 0.95,
        "fuel_density": "high",
        "canopy_cover_pct": 78
      },
      "geometry": {
        "type": "Polygon",
        "coordinates": [
          [
            [86.10, 21.60],
            [86.65, 21.60],
            [86.65, 22.15],
            [86.10, 22.15],
            [86.10, 21.60]
          ]
        ]
      }
    },
    {
      "type": "Feature",
      "properties": {
        "name": "Jim Corbett National Park & Terai Forest Belt",
        "zone_type": "forest",
        "state": "Uttarakhand",
        "vulnerability_weight": 0.90,
        "fuel_density": "high",
        "canopy_cover_pct": 72
      },
      "geometry": {
        "type": "Polygon",
        "coordinates": [
          [
            [78.70, 29.35],
            [79.20, 29.35],
            [79.20, 29.85],
            [78.70, 29.85],
            [78.70, 29.35]
          ]
        ]
      }
    },
    {
      "type": "Feature",
      "properties": {
        "name": "Bandipur Tiger Reserve & Nilgiri Biosphere",
        "zone_type": "forest",
        "state": "Karnataka",
        "vulnerability_weight": 0.92,
        "fuel_density": "high",
        "canopy_cover_pct": 80
      },
      "geometry": {
        "type": "Polygon",
        "coordinates": [
          [
            [76.35, 11.45],
            [76.90, 11.45],
            [76.90, 11.95],
            [76.35, 11.95],
            [76.35, 11.45]
          ]
        ]
      }
    },
    {
      "type": "Feature",
      "properties": {
        "name": "Punjab Intensive Agricultural & Crop Residue Zone",
        "zone_type": "cropland",
        "state": "Punjab",
        "vulnerability_weight": 0.45,
        "fuel_density": "medium",
        "canopy_cover_pct": 8
      },
      "geometry": {
        "type": "Polygon",
        "coordinates": [
          [
            [74.30, 29.80],
            [76.60, 29.80],
            [76.60, 31.60],
            [74.30, 31.60],
            [74.30, 29.80]
          ]
        ]
      }
    },
    {
      "type": "Feature",
      "properties": {
        "name": "Jamnagar Petrochemical & Refining Industrial Area",
        "zone_type": "industrial",
        "state": "Gujarat",
        "vulnerability_weight": 0.25,
        "fuel_density": "low",
        "canopy_cover_pct": 2
      },
      "geometry": {
        "type": "Polygon",
        "coordinates": [
          [
            [69.75, 22.25],
            [70.10, 22.25],
            [70.10, 22.50],
            [69.75, 22.50],
            [69.75, 22.25]
          ]
        ]
      }
    },
    {
      "type": "Feature",
      "properties": {
        "name": "Korba Heavy Industrial & Coal Energy Basin",
        "zone_type": "industrial",
        "state": "Chhattisgarh",
        "vulnerability_weight": 0.30,
        "fuel_density": "low",
        "canopy_cover_pct": 5
      },
      "geometry": {
        "type": "Polygon",
        "coordinates": [
          [
            [82.55, 22.25],
            [82.85, 22.25],
            [82.85, 22.50],
            [82.55, 22.50],
            [82.55, 22.25]
          ]
        ]
      }
    }
  ]
}
